{
  "type": "FeatureCollection",
  "features": [
    {
      "type": "Feature",
      "properties": {
        "norad_id": 66814,
        "name": "STARLINK-35984",
        "group": "last-30-days",
        "lat": 42.68798762944356,
        "lon": -101.49205357327243,
        "alt_km": 409.2055088918314,
        "timestamp": "2025-12-25T07:00:32.764271+00:00",
        "meta_object_name": "STARLINK-35984",
        "meta_object_id": "2025-278Z",
        "meta_epoch": "2025-12-24T22:00:03.000096",
        "meta_mean_motion": 15.50488139,
        "meta_eccentricity": 0.00015822,
        "meta_inclination": 43.0005,
        "meta_ra_of_asc_node": 178.8831,
        "meta_arg_of_pericenter": 276.0125,
        "meta_mean_anomaly": 230.3198,
        "meta_ephemeris_type": 0,
        "meta_classification_type": "U",
        "meta_norad_cat_id": 66814,
        "meta_element_set_no": 999,
        "meta_rev_at_epoch": 500,
        "meta_bstar": 0.0025603254,
        "meta_mean_motion_dot": 0.00152325,
        "meta_mean_motion_ddot": 0,
        "tle_line1": "1 66814U 25278Z   25358.91670139  .00152325  00000+0  25603-2 0  9993",
        "tle_line2": "2 66814  43.0005 178.8831 0001582 276.0125 230.3198 15.50488139  5009"
      },
      "geometry": {
        "type": "Point",
        "coordinates": [
          -101.49205357327243,
          42.68798762944356
        ]
      }
    },
    {
      "type": "Feature",
      "properties": {
        "norad_id": 66815,
        "name": "STARLINK-35985",
        "group": "last-30-days",
        "lat": 42.47168223195509,
        "lon": -104.08751929461482,
        "alt_km": 409.3263967525345,
        "timestamp": "2025-12-25T07:00:32.764281+00:00",
        "meta_object_name": "STARLINK-35985",
        "meta_object_id": "2025-278AA",
        "meta_epoch": "2025-12-24T22:00:03.000096",
        "meta_mean_motion": 15.50497276,
        "meta_eccentricity": 0.00015912,
        "meta_inclination": 43.0005,
        "meta_ra_of_asc_node": 178.8874,
        "meta_arg_of_pericenter": 272.6823,
        "meta_mean_anomaly": 231.7365,
        "meta_ephemeris_type": 0,
        "meta_classification_type": "U",
        "meta_norad_cat_id": 66815,
        "meta_element_set_no": 999,
        "meta_rev_at_epoch": 500,
        "meta_bstar": 0.0018117831,
        "meta_mean_motion_dot": 0.001071,
        "meta_mean_motion_ddot": 0,
        "tle_line1": "1 66815U 25278AA  25358.91670139  .00107100  00000+0  18118-2 0  9998",
        "tle_line2": "2 66815  43.0005 178.8874 0001591 272.6823 231.7365 15.50497276  5007"
      },
      "geometry": {
        "type": "Point",
        "coordinates": [
          -104.08751929461482,
          42.47168223195509
        ]
      }
    },
    {
      "type": "Feature",
      "properties": {
        "norad_id": 66816,
        "name": "STARLINK-36098",
        "group": "last-30-days",
        "lat": 41.04106168889102,
        "lon": -114.18838086208295,
        "alt_km": 409.57574691795253,
        "timestamp": "2025-12-25T07:00:32.764293+00:00",
        "meta_object_name": "STARLINK-36098",
        "meta_object_id": "2025-278AB",
        "meta_epoch": "2025-12-24T22:00:03.000096",
        "meta_mean_motion": 15.50492824,
        "meta_eccentricity": 0.00017101,
        "meta_inclination": 43.0003,
        "meta_ra_of_asc_node": 178.9075,
        "meta_arg_of_pericenter": 271.7964,
        "meta_mean_anomaly": 224.9519,
        "meta_ephemeris_type": 0,
        "meta_classification_type": "U",
        "meta_norad_cat_id": 66816,
        "meta_element_set_no": 999,
        "meta_rev_at_epoch": 475,
        "meta_bstar": 0.0019805555,
        "meta_mean_motion_dot": 0.00117244,
        "meta_mean_motion_ddot": 0,
        "tle_line1": "1 66816U 25278AB  25358.91670139  .00117244  00000+0  19806-2 0  9994",
        "tle_line2": "2 66816  43.0003 178.9075 0001710 271.7964 224.9519 15.50492824  4759"
      },
      "geometry": {
        "type": "Point",
        "coordinates": [
          -114.18838086208295,
          41.04106168889102
        ]
      }
    },
    {
      "type": "Feature",
      "properties": {
        "norad_id": 66817,
        "name": "STARLINK-35995",
        "group": "last-30-days",
        "lat": 41.86781340683901,
        "lon": -109.19277755795963,
        "alt_km": 409.444668760475,
        "timestamp": "2025-12-25T07:00:32.764306+00:00",
        "meta_object_name": "STARLINK-35995",
        "meta_object_id": "2025-278AC",
        "meta_epoch": "2025-12-24T22:00:03.000096",
        "meta_mean_motion": 15.50497222,
        "meta_eccentricity": 0.0001665,
        "meta_inclination": 43.0004,
        "meta_ra_of_asc_node": 178.8973,
        "meta_arg_of_pericenter": 273.2144,
        "meta_mean_anomaly": 227.3697,
        "meta_ephemeris_type": 0,
        "meta_classification_type": "U",
        "meta_norad_cat_id": 66817,
        "meta_element_set_no": 999,
        "meta_rev_at_epoch": 491,
        "meta_bstar": 0.0018163268,
        "meta_mean_motion_dot": 0.00107374,
        "meta_mean_motion_ddot": 0,
        "tle_line1": "1 66817U 25278AC  25358.91670139  .00107374  00000+0  18163-2 0  9993",
        "tle_line2": "2 66817  43.0004 178.8973 0001665 273.2144 227.3697 15.50497222  4912"
      },
      "geometry": {
        "type": "Point",
        "coordinates": [
          -109.19277755795963,
          41.86781340683901
        ]
      }
    },
    {
      "type": "Feature",
      "properties": {
        "norad_id": 66818,
        "name": "STARLINK-35994",
        "group": "last-30-days",
        "lat": 41.34642933729196,
        "lon": -112.50412444625134,
        "alt_km": 413.0836709525238,
        "timestamp": "2025-12-25T07:00:32.764316+00:00",
        "meta_object_name": "STARLINK-35994",
        "meta_object_id": "2025-278AD",
        "meta_epoch": "2025-12-24T22:00:03.000096",
        "meta_mean_motion": 15.50905521,
        "meta_eccentricity": 0.00013314,
        "meta_inclination": 43.0002,
        "meta_ra_of_asc_node": 178.9023,
        "meta_arg_of_pericenter": 278.9346,
        "meta_mean_anomaly": 219.665,
        "meta_ephemeris_type": 0,
        "meta_classification_type": "U",
        "meta_norad_cat_id": 66818,
        "meta_element_set_no": 999,
        "meta_rev_at_epoch": 491,
        "meta_bstar": -0.035441627,
        "meta_mean_motion_dot": -0.01891372,
        "meta_mean_motion_ddot": 0,
        "tle_line1": "1 66818U 25278AD  25358.91670139 -.01891372  00000+0 -35442-1 0  9993",
        "tle_line2": "2 66818  43.0002 178.9023 0001331 278.9346 219.6650 15.50905521  4913"
      },
      "geometry": {
        "type": "Point",
        "coordinates": [
          -112.50412444625134,
          41.34642933729196
        ]
      }
    },
    {
      "type": "Feature",
      "properties": {
        "norad_id": 66819,
        "name": "STARLINK-35989",
        "group": "last-30-days",
        "lat": 42.197877723498465,
        "lon": -106.65408042767429,
        "alt_km": 409.3543396337018,
        "timestamp": "2025-12-25T07:00:32.764327+00:00",
        "meta_object_name": "STARLINK-35989",
        "meta_object_id": "2025-278AE",
        "meta_epoch": "2025-12-24T22:00:03.000096",
        "meta_mean_motion": 15.504952,
        "meta_eccentricity": 0.0001559,
        "meta_inclination": 43.0004,
        "meta_ra_of_asc_node": 178.8926,
        "meta_arg_of_pericenter": 268.5556,
        "meta_mean_anomaly": 233.9472,
        "meta_ephemeris_type": 0,
        "meta_classification_type": "U",
        "meta_norad_cat_id": 66819,
        "meta_element_set_no": 999,
        "meta_rev_at_epoch": 491,
        "meta_bstar": 0.001863769,
        "meta_mean_motion_dot": 0.00110219,
        "meta_mean_motion_ddot": 0,
        "tle_line1": "1 66819U 25278AE  25358.91670139  .00110219  00000+0  18638-2 0  9994",
        "tle_line2": "2 66819  43.0004 178.8926 0001559 268.5556 233.9472 15.50495200  4916"
      },
      "geometry": {
        "type": "Point",
        "coordinates": [
          -106.65408042767429,
          42.197877723498465
        ]
      }
    },
    {
      "type": "Feature",
      "properties": {
        "norad_id": 66820,
        "name": "KOMPSAT-7",
        "group": "last-30-days",
        "lat": 60.21100821412354,
        "lon": -68.63065823137212,
        "alt_km": 566.323173375642,
        "timestamp": "2025-12-25T07:00:32.764354+00:00",
        "meta_object_name": "KOMPSAT-7",
        "meta_object_id": "2025-279A",
        "meta_epoch": "2025-12-24T22:44:08.567232",
        "meta_mean_motion": 15.00672035,
        "meta_eccentricity": 0.00112396,
        "meta_inclination": 97.6459,
        "meta_ra_of_asc_node": 304.6024,
        "meta_arg_of_pericenter": 222.2186,
        "meta_mean_anomaly": 137.8173,
        "meta_ephemeris_type": 0,
        "meta_classification_type": "U",
        "meta_norad_cat_id": 66820,
        "meta_element_set_no": 999,
        "meta_rev_at_epoch": 348,
        "meta_bstar": 0.00024503699,
        "meta_mean_motion_dot": 3.045e-05,
        "meta_mean_motion_ddot": 0,
        "tle_line1": "1 66820U 25279A   25358.94732138  .00003045  00000+0  24504-3 0  9996",
        "tle_line2": "2 66820  97.6459 304.6024 0011239 222.2186 137.8173 15.00672035  3486"
      },
      "geometry": {
        "type": "Point",
        "coordinates": [
          -68.63065823137212,
          60.21100821412354
        ]
      }
    }
  ]
}